NORAD_CAT_ID,OBJECT_NAME,OBJECT_TYPE,EPOCH,MEAN_MOTION,ECCENTRICITY,INCLINATION,RA_OF_ASC_NODE,ARG_OF_PERICENTER,MEAN_ANOMALY,BSTAR,MEAN_MOTION_DOT,MEAN_MOTION_DDOT,TLE_LINE0,TLE_LINE1,TLE_LINE2,SEMIMAJOR_AXIS,PERIOD,APOGEE,PERIGEE,DECAYED
27216,PSLV DEB,DEBRIS,2020-10-02 12:18:40,15.03881603,0.0033389,98.2386,271.8406,111.7183,15.7492,0.00010134,1.341e-05,0.0,0 PSLV DEB,1 27216U 01049FL  20276.51296737 +.00001341 +00000-0 +10134-3 0  9990,2 27216 098.2386 271.8406 0033389 111.7183 015.7492 15.03881603018240,6933.078,95.75200000000001,578.092,531.794,0.0
27216,PSLV DEB,DEBRIS,2020-10-03 05:35:17,15.03883697,0.0033366999999999997,98.2386,272.6069,109.4213,313.0013,0.00010627,1.4099999999999999e-05,0.0,0 PSLV DEB,1 27216U 01049FL  20277.23283744 +.00001410 +00000-0 +10627-3 0  9998,2 27216 098.2386 272.6069 0033367 109.4213 313.0013 15.03883697018358,6933.071,95.75200000000001,578.07,531.803,0.0
27216,PSLV DEB,DEBRIS,2020-10-03 23:06:43,15.03886032,0.0033349000000000005,98.2387,273.3843,107.0809,305.9893,0.00011211,1.491e-05,0.0,0 PSLV DEB,1 27216U 01049FL  20277.96299949  .00001491  00000-0  11211-3 0  9991,2 27216  98.2387 273.3843 0033349 107.0809 305.9893 15.03886032 18466,6933.064,95.75200000000001,578.05,531.808,0.0
27216,PSLV DEB,DEBRIS,2020-10-04 12:12:09,15.03887615,0.0033351999999999995,98.2389,273.9651,105.3231,18.9264,0.00011398,1.517e-05,0.0,0 PSLV DEB,1 27216U 01049FL  20278.50843836 +.00001517 +00000-0 +11398-3 0  9997,2 27216 098.2389 273.9651 0033352 105.3231 018.9264 15.03887615018545,6933.059,95.75200000000001,578.048,531.8009999999998,0.0
27216,PSLV DEB,DEBRIS,2020-10-05 05:29:28,15.03889925,0.0033350000000000003,98.2391,274.7321,103.0254,318.8447,0.00011861,1.582e-05,0.0,0 PSLV DEB,1 27216U 01049FL  20279.22879808  .00001582  00000-0  11861-3 0  9992,2 27216  98.2391 274.7321 0033350 103.0254 318.8447 15.03889925 18652,6933.052,95.75200000000001,578.039,531.7959999999998,0.0
27216,PSLV DEB,DEBRIS,2020-10-06 05:25:09,15.03895005,0.003336,98.2395,275.7938,99.8387,316.4897,0.00014208,1.91e-05,0.0,0 PSLV DEB,1 27216U 01049FL  20280.22580067 +.00001910 +00000-0 +14208-3 0  9993,2 27216 098.2395 275.7938 0033360 099.8387 316.4897 15.03895005018807,6933.0369999999975,95.751,578.03,531.773,0.0
27216,PSLV DEB,DEBRIS,2020-10-06 22:52:11,15.03897429,0.0033365,98.2396,276.5681,97.5016,293.0092,0.00014157,1.903e-05,0.0,0 PSLV DEB,1 27216U 01049FL  20280.95291426 +.00001903 +00000-0 +14157-3 0  9996,2 27216 098.2396 276.5681 0033365 097.5016 293.0092 15.03897429018912,6933.029,95.751,578.026,531.762,0.0
27216,PSLV DEB,DEBRIS,2020-10-07 05:23:26,15.03898325,0.0033375,98.2397,276.8573,96.6489,323.9143,0.00014114,1.897e-05,0.0,0 PSLV DEB,1 27216U 01049FL  20281.22460826  .00001897  00000-0  14114-3 0  9994,2 27216  98.2397 276.8573 0033375  96.6489 323.9143 15.03898325 18951,6933.026,95.751,578.03,531.752,0.0
27216,PSLV DEB,DEBRIS,2020-10-07 12:04:25,15.03899376,0.0033357,98.2398,277.1538,95.749,31.5218,0.00014140000000000002,1.9e-05,0.0,0 PSLV DEB,1 27216U 01049FL  20281.50307660 +.00001900 +00000-0 +14140-3 0  9995,2 27216 098.2398 277.1538 0033357 095.7490 031.5218 15.03899376018995,6933.023,95.751,578.015,531.762,0.0
27216,PSLV DEB,DEBRIS,2020-10-08 05:20:22,15.03902533,0.0033366,98.2399,277.9197,93.4396,326.3046,0.00014624,1.968e-05,0.0,0 PSLV DEB,1 27216U 01049FL  20282.22247862 +.00001968 +00000-0 +14624-3 0  9993,2 27216 098.2399 277.9197 0033366 093.4396 326.3046 15.03902533019103,6933.014,95.751,578.011,531.746,0.0
27216,PSLV DEB,DEBRIS,2020-10-08 19:58:38,15.03904559,0.0033375,98.24,278.569,91.4706,28.3208,0.00014145,1.901e-05,0.0,0 PSLV DEB,1 27216U 01049FL  20282.83238837  .00001901  00000-0  14145-3 0  9997,2 27216  98.2400 278.5690 0033375  91.4706  28.3208 15.03904559 19192,6933.007,95.751,578.011,531.7330000000002,0.0
27216,PSLV DEB,DEBRIS,2020-10-09 11:59:38,15.03906944,0.0033395000000000005,98.2402,279.2795,89.3183,41.3707,0.00013708,1.84e-05,0.0,0 PSLV DEB,1 27216U 01049FL  20283.49974778 +.00001840 +00000-0 +13708-3 0  9997,2 27216 098.2402 279.2795 0033395 089.3183 041.3707 15.03906944019295,6933.0,95.751,578.018,531.712,0.0
27216,PSLV DEB,DEBRIS,2020-10-10 05:13:55,15.03909542,0.0033418,98.2404,280.0444,87.0186,329.9349,0.00013273,1.7800000000000002e-05,0.0,0 PSLV DEB,1 27216U 01049FL  20284.21799858  .00001780  00000-0  13273-3 0  9992,2 27216  98.2404 280.0444 0033418  87.0186 329.9349 15.03909542 19409,6932.9919999999975,95.75,578.026,531.688,0.0
27216,PSLV DEB,DEBRIS,2020-10-10 22:49:16,15.03912213,0.0033458,98.2406,280.8247,84.6768,337.7219,0.00012767,1.709e-05,0.0,0 PSLV DEB,1 27216U 01049FL  20284.95088191 +.00001709 +00000-0 +12767-3 0  9992,2 27216 098.2406 280.8247 0033458 084.6768 337.7219 15.03912213019517,6932.984,95.75,578.045,531.6519999999998,0.0
27216,PSLV DEB,DEBRIS,2020-10-12 11:56:37,15.03917582,0.0033531,98.2409,282.472,79.7589,71.8725,0.00011776,1.571e-05,0.0,0 PSLV DEB,1 27216U 01049FL  20286.49765788  .00001571  00000-0  11776-3 0  9993,2 27216  98.2409 282.4720 0033531  79.7589  71.8725 15.03917582 19749,6932.967,95.75,578.0790000000002,531.585,0.0
27216,PSLV DEB,DEBRIS,2020-10-13 11:53:46,15.03920777,0.0033591999999999997,98.241,283.5348,76.6654,75.02,0.00011166,1.486e-05,0.0,0 PSLV DEB,1 27216U 01049FL  20287.49567653 +.00001486 +00000-0 +11166-3 0  9993,2 27216 098.2410 283.5348 0033592 076.6654 075.0200 15.03920777019895,6932.9569999999985,95.75,578.112,531.533,0.0
27216,PSLV DEB,DEBRIS,2020-10-13 22:40:24,15.03922229,0.003360800000000001,98.241,284.0131,75.2374,346.1558,0.00011005,1.464e-05,0.0,0 PSLV DEB,1 27216U 01049FL  20287.94472573 +.00001464 +00000-0 +11005-3 0  9997,2 27216 098.2410 284.0131 0033608 075.2374 346.1558 15.03922229019963,6932.953,95.75,578.118,531.518,0.0
27216,PSLV DEB,DEBRIS,2020-10-14 05:03:22,15.03923003,0.0033607,98.2411,284.2964,74.3746,346.0045,0.00010827,1.439e-05,0.0,0 PSLV DEB,1 27216U 01049FL  20288.21067337 +.00001439 +00000-0 +10827-3 0  9999,2 27216 098.2411 284.2964 0033607 074.3746 346.0045 15.03923003020000,6932.951,95.75,578.115,531.516,0.0
27216,PSLV DEB,DEBRIS,2020-10-14 22:29:20,15.03925406,0.0033632,98.2413,285.0701,72.0634,318.5659,0.00010771,1.431e-05,0.0,0 PSLV DEB,1 27216U 01049FL  20288.93704582 +.00001431 +00000-0 +10771-3 0  9998,2 27216 098.2413 285.0701 0033632 072.0634 318.5659 15.03925406020115,6932.943,95.749,578.125,531.491,0.0
27216,PSLV DEB,DEBRIS,2020-10-15 11:47:53,15.03926832,0.0033646,98.2413,285.6607,70.3263,80.8649,0.00010363,1.375e-05,0.0,0 PSLV DEB,1 27216U 01049FL  20289.49159675 +.00001375 +00000-0 +10363-3 0  9991,2 27216 098.2413 285.6607 0033646 070.3263 080.8649 15.03926832020190,6932.939,95.749,578.13,531.477,0.0
27216,PSLV DEB,DEBRIS,2020-10-16 11:44:55,15.0392954,0.0033656,98.2414,286.7236,67.1552,83.6561,9.8941e-05,1.309e-05,0.0,0 PSLV DEB,1 27216U 01049FL  20290.48952959 +.00001309 +00000-0 +98941-4 0  9994,2 27216 098.2414 286.7236 0033656 067.1552 083.6561 15.03929540020347,6932.931,95.749,578.129,531.462,0.0
27216,PSLV DEB,DEBRIS,2020-10-16 22:30:52,15.03930835,0.0033659999999999996,98.2414,287.2014,65.725,352.2604,9.8394e-05,1.302e-05,0.0,0 PSLV DEB,1 27216U 01049FL  20290.93810806 +.00001302 +00000-0 +98394-4 0  9993,2 27216 098.2414 287.2014 0033660 065.7250 352.2604 15.03930835020411,6932.927,95.749,578.128,531.455,0.0
27216,PSLV DEB,DEBRIS,2020-10-17 04:54:44,15.03931609,0.0033664999999999997,98.2414,287.4853,64.8885,355.4574,9.859e-05,1.304e-05,0.0,0 PSLV DEB,1 27216U 01049FL  20291.20467799 +.00001304 +00000-0 +98590-4 0  9993,2 27216 098.2414 287.4853 0033665 064.8885 355.4574 15.03931609020458,6932.924,95.749,578.129,531.4490000000002,0.0
27216,PSLV DEB,DEBRIS,2020-10-17 11:42:01,15.0393239,0.0033668,98.2414,287.7866,63.9965,86.7391,9.7628e-05,1.291e-05,0.0,0 PSLV DEB,1 27216U 01049FL  20291.48751681  .00001291  00000-0  97628-4 0  9995,2 27216  98.2414 287.7866 0033668  63.9965  86.7391 15.03932390 20490,6932.922,95.749,578.129,531.445,0.0
27216,PSLV DEB,DEBRIS,2020-10-18 13:07:32,15.03935586,0.0033671,98.2414,288.9149,60.6535,62.2107,9.9937e-05,1.323e-05,0.0,0 PSLV DEB,1 27216U 01049FL  20292.54689837 +.00001323 +00000-0 +99937-4 0  9997,2 27216 098.2414 288.9149 0033671 060.6535 062.2107 15.03935586020650,6932.9119999999975,95.749,578.121,531.433,0.0
27216,PSLV DEB,DEBRIS,2020-10-18 18:08:21,15.03936153,0.0033674,98.2414,289.1374,59.9866,113.208,9.989600000000001e-05,1.323e-05,0.0,0 PSLV DEB,1 27216U 01049FL  20292.75579979  .00001323  00000-0  99896-4 0  9999,2 27216  98.2414 289.1374 0033674  59.9866 113.2080 15.03936153 20685,6932.91,95.749,578.121,531.429,0.0
27216,PSLV DEB,DEBRIS,2020-10-18 22:27:55,15.03937025,0.003367,98.2414,289.3294,59.4111,9.1154,0.00010329,1.3699999999999998e-05,0.0,0 PSLV DEB,1 27216U 01049FL  20292.93605488 +.00001370 +00000-0 +10329-3 0  9999,2 27216 098.2414 289.3294 0033670 059.4111 009.1154 15.03937025020710,6932.908,95.749,578.116,531.429,0.0
27216,PSLV DEB,DEBRIS,2020-10-19 19:27:50,15.03939624,0.0033654,98.2414,290.2613,56.6268,66.0758,0.00010568,1.404e-05,0.0,0 PSLV DEB,1 27216U 01049FL  20293.81099802 +.00001404 +00000-0 +10568-3 0  9997,2 27216 098.2414 290.2613 0033654 056.6268 066.0758 15.03939624020843,6932.9,95.749,578.097,531.433,0.0
27216,PSLV DEB,DEBRIS,2020-10-20 11:33:25,15.03942518,0.0033633,98.2414,290.9755,54.4862,96.4618,0.00011657,1.556e-05,0.0,0 PSLV DEB,1 27216U 01049FL  20294.48154785 +.00001556 +00000-0 +11657-3 0  9991,2 27216 098.2414 290.9755 0033633 054.4862 096.4618 15.03942518020949,6932.891,95.74799999999999,578.073,531.438,0.0
27216,PSLV DEB,DEBRIS,2020-10-20 19:25:01,15.03943381,0.0033625,98.2415,291.3244,53.3997,69.5724,0.00011588,1.546e-05,0.0,0 PSLV DEB,1 27216U 01049FL  20294.80904229 +.00001546 +00000-0 +11588-3 0  9995,2 27216 098.2415 291.3244 0033625 053.3997 069.5724 15.03943381020999,6932.888000000001,95.74799999999999,578.065,531.441,0.0
